STARLINK-35405          
1 66440U 25259U   25333.16668980 -.02034550  00000+0 -24358-1 0  9996
2 66440  42.9993 126.8071 0001820 268.5807  58.7038 15.63513550  4098
STARLINK-35426          
1 66441U 25259V   25333.16668980 -.02033848  00000+0 -24349-1 0  9996
2 66441  42.9994 126.8014 0001796 268.9562  60.2441 15.63513714  4099
STARLINK-34724          
1 66442U 25259W   25333.16668980 -.02026353  00000+0 -24254-1 0  9995
2 66442  42.9998 126.7972 0001658 269.3335  61.7890 15.63507002  4093
STARLINK-35219          
1 66443U 25259X   25333.16668980 -.02027651  00000+0 -24270-1 0  9996
2 66443  43.0000 126.7923 0001719 269.8304  63.2073 15.63508670  3995
STARLINK-35360          
1 66444U 25259Y   25333.16668980 -.02035576  00000+0 -24372-1 0  9995
2 66444  42.9996 126.7770 0001896 270.5250  68.2624 15.63513371  4096
STARLINK-34698          
1 66445U 25259Z   25333.16668980 -.02032861  00000+0 -24335-1 0  9999
2 66445  42.9993 126.7868 0001814 271.6615  63.2892 15.63513377  3995
STARLINK-34986          
1 66446U 25259AA  25333.16668980 -.02038715  00000+0 -24411-1 0  9999
2 66446  42.9996 126.7814 0001867 271.6443  65.2220 15.63517721  4093
STARLINK-34851          
1 66447U 25259AB  25333.16668980 -.02029595  00000+0 -24294-1 0  9995
2 66447  42.9996 126.7721 0001816 269.7615  70.9431 15.63510363  3994
STARLINK-35355          
1 66448U 25259AC  25333.16668980 -.02040201  00000+0 -24430-1 0  9995
2 66448  42.9995 126.7676 0001933 271.2175  71.4008 15.63517786  4096
STARLINK-34720          
1 66449U 25259AD  25333.16668980 -.02032851  00000+0 -24335-1 0  9992
2 66449  42.9997 126.7624 0001860 269.6145  74.9221 15.63513380  3998
STARLINK-35334          
1 66450U 25259AE  25333.16668980 -.02032359  00000+0 -24329-1 0  9990
2 66450  42.9996 126.7570 0001834 270.4501  76.0040 15.63512780  4093
VIASAT-3 F2             
1 66454U 25261A   25330.74705039 -.00000051  00000+0  00000+0 0  9994
2 66454   5.5832 293.8608 2341324 182.7714 334.4159  2.28187844   288
