CCSDS_OMM_VERS = 2.0
CREATION_DATE  = 
ORIGINATOR     = 

OBJECT_NAME    = STARLINK-35405
OBJECT_ID      = 2025-259U
CENTER_NAME    = EARTH
REF_FRAME      = TEME
TIME_SYSTEM    = UTC
MEAN_ELEMENT_THEORY = SGP/SGP4

EPOCH          = 2025-11-29T04:00:01.998720
MEAN_MOTION    = 15.63513550
ECCENTRICITY   = .000182
INCLINATION    = 42.9993
RA_OF_ASC_NODE = 126.8071
ARG_OF_PERICENTER = 268.5807
MEAN_ANOMALY   = 58.7038

EPHEMERIS_TYPE = 0
CLASSIFICATION_TYPE = U
NORAD_CAT_ID   = 66440
ELEMENT_SET_NO = 999
REV_AT_EPOCH   = 409
BSTAR          = -.24358E-1
MEAN_MOTION_DOT = -.203455E-1
MEAN_MOTION_DDOT = 0

CCSDS_OMM_VERS = 2.0
CREATION_DATE  = 
ORIGINATOR     = 

OBJECT_NAME    = STARLINK-35426
OBJECT_ID      = 2025-259V
CENTER_NAME    = EARTH
REF_FRAME      = TEME
TIME_SYSTEM    = UTC
MEAN_ELEMENT_THEORY = SGP/SGP4

EPOCH          = 2025-11-29T04:00:01.998720
MEAN_MOTION    = 15.63513714
ECCENTRICITY   = .0001796
INCLINATION    = 42.9994
RA_OF_ASC_NODE = 126.8014
ARG_OF_PERICENTER = 268.9562
MEAN_ANOMALY   = 60.2441

EPHEMERIS_TYPE = 0
CLASSIFICATION_TYPE = U
NORAD_CAT_ID   = 66441
ELEMENT_SET_NO = 999
REV_AT_EPOCH   = 409
BSTAR          = -.24349E-1
MEAN_MOTION_DOT = -.2033848E-1
MEAN_MOTION_DDOT = 0

CCSDS_OMM_VERS = 2.0
CREATION_DATE  = 
ORIGINATOR     = 

OBJECT_NAME    = STARLINK-34724
OBJECT_ID      = 2025-259W
CENTER_NAME    = EARTH
REF_FRAME      = TEME
TIME_SYSTEM    = UTC
MEAN_ELEMENT_THEORY = SGP/SGP4

EPOCH          = 2025-11-29T04:00:01.998720
MEAN_MOTION    = 15.63507002
ECCENTRICITY   = .0001658
INCLINATION    = 42.9998
RA_OF_ASC_NODE = 126.7972
ARG_OF_PERICENTER = 269.3335
MEAN_ANOMALY   = 61.7890

EPHEMERIS_TYPE = 0
CLASSIFICATION_TYPE = U
NORAD_CAT_ID   = 66442
ELEMENT_SET_NO = 999
REV_AT_EPOCH   = 409
BSTAR          = -.24254E-1
MEAN_MOTION_DOT = -.2026353E-1
MEAN_MOTION_DDOT = 0

CCSDS_OMM_VERS = 2.0
CREATION_DATE  = 
ORIGINATOR     = 

OBJECT_NAME    = STARLINK-35219
OBJECT_ID      = 2025-259X
CENTER_NAME    = EARTH
REF_FRAME      = TEME
TIME_SYSTEM    = UTC
MEAN_ELEMENT_THEORY = SGP/SGP4

EPOCH          = 2025-11-29T04:00:01.998720
MEAN_MOTION    = 15.63508670
ECCENTRICITY   = .0001719
INCLINATION    = 43.0000
RA_OF_ASC_NODE = 126.7923
ARG_OF_PERICENTER = 269.8304
MEAN_ANOMALY   = 63.2073

EPHEMERIS_TYPE = 0
CLASSIFICATION_TYPE = U
NORAD_CAT_ID   = 66443
ELEMENT_SET_NO = 999
REV_AT_EPOCH   = 399
BSTAR          = -.2427E-1
MEAN_MOTION_DOT = -.2027651E-1
MEAN_MOTION_DDOT = 0

CCSDS_OMM_VERS = 2.0
CREATION_DATE  = 
ORIGINATOR     = 

OBJECT_NAME    = STARLINK-35360
OBJECT_ID      = 2025-259Y
CENTER_NAME    = EARTH
REF_FRAME      = TEME
TIME_SYSTEM    = UTC
MEAN_ELEMENT_THEORY = SGP/SGP4

EPOCH          = 2025-11-29T04:00:01.998720
MEAN_MOTION    = 15.63513371
ECCENTRICITY   = .0001896
INCLINATION    = 42.9996
RA_OF_ASC_NODE = 126.7770
ARG_OF_PERICENTER = 270.5250
MEAN_ANOMALY   = 68.2624

EPHEMERIS_TYPE = 0
CLASSIFICATION_TYPE = U
NORAD_CAT_ID   = 66444
ELEMENT_SET_NO = 999
REV_AT_EPOCH   = 409
BSTAR          = -.24372E-1
MEAN_MOTION_DOT = -.2035576E-1
MEAN_MOTION_DDOT = 0

CCSDS_OMM_VERS = 2.0
CREATION_DATE  = 
ORIGINATOR     = 

OBJECT_NAME    = STARLINK-34698
OBJECT_ID      = 2025-259Z
CENTER_NAME    = EARTH
REF_FRAME      = TEME
TIME_SYSTEM    = UTC
MEAN_ELEMENT_THEORY = SGP/SGP4

EPOCH          = 2025-11-29T04:00:01.998720
MEAN_MOTION    = 15.63513377
ECCENTRICITY   = .0001814
INCLINATION    = 42.9993
RA_OF_ASC_NODE = 126.7868
ARG_OF_PERICENTER = 271.6615
MEAN_ANOMALY   = 63.2892

EPHEMERIS_TYPE = 0
CLASSIFICATION_TYPE = U
NORAD_CAT_ID   = 66445
ELEMENT_SET_NO = 999
REV_AT_EPOCH   = 399
BSTAR          = -.24335E-1
MEAN_MOTION_DOT = -.2032861E-1
MEAN_MOTION_DDOT = 0

CCSDS_OMM_VERS = 2.0
CREATION_DATE  = 
ORIGINATOR     = 

OBJECT_NAME    = STARLINK-34986
OBJECT_ID      = 2025-259AA
CENTER_NAME    = EARTH
REF_FRAME      = TEME
TIME_SYSTEM    = UTC
MEAN_ELEMENT_THEORY = SGP/SGP4

EPOCH          = 2025-11-29T04:00:01.998720
MEAN_MOTION    = 15.63517721
ECCENTRICITY   = .0001867
INCLINATION    = 42.9996
RA_OF_ASC_NODE = 126.7814
ARG_OF_PERICENTER = 271.6443
MEAN_ANOMALY   = 65.2220

EPHEMERIS_TYPE = 0
CLASSIFICATION_TYPE = U
NORAD_CAT_ID   = 66446
ELEMENT_SET_NO = 999
REV_AT_EPOCH   = 409
BSTAR          = -.24411E-1
MEAN_MOTION_DOT = -.2038715E-1
MEAN_MOTION_DDOT = 0

CCSDS_OMM_VERS = 2.0
CREATION_DATE  = 
ORIGINATOR     = 

OBJECT_NAME    = STARLINK-34851
OBJECT_ID      = 2025-259AB
CENTER_NAME    = EARTH
REF_FRAME      = TEME
TIME_SYSTEM    = UTC
MEAN_ELEMENT_THEORY = SGP/SGP4

EPOCH          = 2025-11-29T04:00:01.998720
MEAN_MOTION    = 15.63510363
ECCENTRICITY   = .0001816
INCLINATION    = 42.9996
RA_OF_ASC_NODE = 126.7721
ARG_OF_PERICENTER = 269.7615
MEAN_ANOMALY   = 70.9431

EPHEMERIS_TYPE = 0
CLASSIFICATION_TYPE = U
NORAD_CAT_ID   = 66447
ELEMENT_SET_NO = 999
REV_AT_EPOCH   = 399
BSTAR          = -.24294E-1
MEAN_MOTION_DOT = -.2029595E-1
MEAN_MOTION_DDOT = 0

CCSDS_OMM_VERS = 2.0
CREATION_DATE  = 
ORIGINATOR     = 

OBJECT_NAME    = STARLINK-35355
OBJECT_ID      = 2025-259AC
CENTER_NAME    = EARTH
REF_FRAME      = TEME
TIME_SYSTEM    = UTC
MEAN_ELEMENT_THEORY = SGP/SGP4

EPOCH          = 2025-11-29T04:00:01.998720
MEAN_MOTION    = 15.63517786
ECCENTRICITY   = .0001933
INCLINATION    = 42.9995
RA_OF_ASC_NODE = 126.7676
ARG_OF_PERICENTER = 271.2175
MEAN_ANOMALY   = 71.4008

EPHEMERIS_TYPE = 0
CLASSIFICATION_TYPE = U
NORAD_CAT_ID   = 66448
ELEMENT_SET_NO = 999
REV_AT_EPOCH   = 409
BSTAR          = -.2443E-1
MEAN_MOTION_DOT = -.2040201E-1
MEAN_MOTION_DDOT = 0

CCSDS_OMM_VERS = 2.0
CREATION_DATE  = 
ORIGINATOR     = 

OBJECT_NAME    = STARLINK-34720
OBJECT_ID      = 2025-259AD
CENTER_NAME    = EARTH
REF_FRAME      = TEME
TIME_SYSTEM    = UTC
MEAN_ELEMENT_THEORY = SGP/SGP4

EPOCH          = 2025-11-29T04:00:01.998720
MEAN_MOTION    = 15.63513380
ECCENTRICITY   = .000186
INCLINATION    = 42.9997
RA_OF_ASC_NODE = 126.7624
ARG_OF_PERICENTER = 269.6145
MEAN_ANOMALY   = 74.9221

EPHEMERIS_TYPE = 0
CLASSIFICATION_TYPE = U
NORAD_CAT_ID   = 66449
ELEMENT_SET_NO = 999
REV_AT_EPOCH   = 399
BSTAR          = -.24335E-1
MEAN_MOTION_DOT = -.2032851E-1
MEAN_MOTION_DDOT = 0

CCSDS_OMM_VERS = 2.0
CREATION_DATE  = 
ORIGINATOR     = 

OBJECT_NAME    = STARLINK-35334
OBJECT_ID      = 2025-259AE
CENTER_NAME    = EARTH
REF_FRAME      = TEME
TIME_SYSTEM    = UTC
MEAN_ELEMENT_THEORY = SGP/SGP4

EPOCH          = 2025-11-29T04:00:01.998720
MEAN_MOTION    = 15.63512780
ECCENTRICITY   = .0001834
INCLINATION    = 42.9996
RA_OF_ASC_NODE = 126.7570
ARG_OF_PERICENTER = 270.4501
MEAN_ANOMALY   = 76.0040

EPHEMERIS_TYPE = 0
CLASSIFICATION_TYPE = U
NORAD_CAT_ID   = 66450
ELEMENT_SET_NO = 999
REV_AT_EPOCH   = 409
BSTAR          = -.24329E-1
MEAN_MOTION_DOT = -.2032359E-1
MEAN_MOTION_DDOT = 0

CCSDS_OMM_VERS = 2.0
CREATION_DATE  = 
ORIGINATOR     = 

OBJECT_NAME    = VIASAT-3 F2
OBJECT_ID      = 2025-261A
CENTER_NAME    = EARTH
REF_FRAME      = TEME
TIME_SYSTEM    = UTC
MEAN_ELEMENT_THEORY = SGP/SGP4

EPOCH          = 2025-11-26T17:55:45.153696
MEAN_MOTION    = 2.28187844
ECCENTRICITY   = .23413249
INCLINATION    = 5.5832
RA_OF_ASC_NODE = 293.8608
ARG_OF_PERICENTER = 182.7714
MEAN_ANOMALY   = 334.4159

EPHEMERIS_TYPE = 0
CLASSIFICATION_TYPE = U
NORAD_CAT_ID   = 66454
ELEMENT_SET_NO = 999
REV_AT_EPOCH   = 28
BSTAR          = 0
MEAN_MOTION_DOT = -.51E-6
MEAN_MOTION_DDOT = 0

